STARLINK-1698
1 16547C 20070R   21326.15436293 -.00006961  00000-0 -46655-3 0  3269
2 16547  53.0545  18.0521 0001332  72.9610 146.9944 15.06393730    16
